[{"OBJECT_NAME":"COSMOS 2506","OBJECT_ID":"2015-029A","EPOCH":"2026-03-09T23:04:50.378016","MEAN_MOTION":14.54348608,"ECCENTRICITY":0.00085368,"INCLINATION":98.0605,"RA_OF_ASC_NODE":113.48,"ARG_OF_PERICENTER":100.8275,"MEAN_ANOMALY":259.3883,"EPHEMERIS_TYPE":0,"CLASSIFICATION_TYPE":"U","NORAD_CAT_ID":40699,"ELEMENT_SET_NO":999,"REV_AT_EPOCH":56846,"BSTAR":2.4503149e-5,"MEAN_MOTION_DOT":6.1e-7,"MEAN_MOTION_DDOT":0},{"OBJECT_NAME":"COSMOS 1275 DEB","OBJECT_ID":"1981-053KQ","EPOCH":"2026-03-08T15:50:32.550144","MEAN_MOTION":14.47288071,"ECCENTRICITY":0.00254252,"INCLINATION":82.7778,"RA_OF_ASC_NODE":296.6766,"ARG_OF_PERICENTER":218.1632,"MEAN_ANOMALY":141.7765,"EPHEMERIS_TYPE":0,"CLASSIFICATION_TYPE":"U","NORAD_CAT_ID":17621,"ELEMENT_SET_NO":999,"REV_AT_EPOCH":9323,"BSTAR":0.0027199224,"MEAN_MOTION_DOT":0.00010013,"MEAN_MOTION_DDOT":0}]
